{"type": "FeatureCollection", "features": [ {"type": "Feature", "properties": {"norad_id": 35773, "name": "COSMOS 2251 DEB", "group": "cosmos-2251-debris", "lat": -33.40777912170868, "lon": -48.30967974815042, "alt_km": 721.0406887466252, "timestamp": "2025-12-22T05:49:03.897892+00:00", "meta": {"OBJECT_NAME": "COSMOS 2251 DEB", "OBJECT_ID": "1993-036ART", "EPOCH": "2025-12-21T15:11:56.535072", "MEAN_MOTION": 14.62113252, "ECCENTRICITY": 0.0045228, "INCLINATION": 74.0082, "RA_OF_ASC_NODE": 323.7614, "ARG_OF_PERICENTER": 121.2103, "MEAN_ANOMALY": 239.3508, "EPHEMERIS_TYPE": 0, "CLASSIFICATION_TYPE": "U", "NORAD_CAT_ID": 35773, "ELEMENT_SET_NO": 999, "REV_AT_EPOCH": 86969, "BSTAR": 0.00045568, "MEAN_MOTION_DOT": 2.294e-05, "MEAN_MOTION_DDOT": 0}, "tle": {"line1": "1 35773U 93036ART 25355.63329323  .00002294  00000+0  45568-3 0  9994", "line2": "2 35773  74.0082 323.7614 0045228 121.2103 239.3508 14.62113252869690"}}, "geometry": {"type": "Point", "coordinates": [-48.30967974815042, -33.40777912170868]}}, {"type": "Feature", "properties": {"norad_id": 35777, "name": "COSMOS 2251 DEB", "group": "cosmos-2251-debris", "lat": -33.960518589909434, "lon": -63.75577187746422, "alt_km": 1285.9853602399699, "timestamp": "2025-12-22T05:49:03.897903+00:00", "meta": {"OBJECT_NAME": "COSMOS 2251 DEB", "OBJECT_ID": "1993-036ARX", "EPOCH": "2025-12-21T03:15:52.333632", "MEAN_MOTION": 13.41306169, "ECCENTRICITY": 0.04518911, "INCLINATION": 73.7705, "RA_OF_ASC_NODE": 309.3239, "ARG_OF_PERICENTER": 202.9304, "MEAN_ANOMALY": 176.7174, "EPHEMERIS_TYPE": 0, "CLASSIFICATION_TYPE": "U", "NORAD_CAT_ID": 35777, "ELEMENT_SET_NO": 999, "REV_AT_EPOCH": 79797, "BSTAR": 0.00012977611, "MEAN_MOTION_DOT": 1.09e-06, "MEAN_MOTION_DDOT": 0}, "tle": {"line1": "1 35777U 93036ARX 25355.13602238  .00000109  00000+0  12978-3 0  9994", "line2": "2 35777  73.7705 309.3239 0451891 202.9304 176.7174 13.41306169797973"}}, "geometry": {"type": "Point", "coordinates": [-63.75577187746422, -33.960518589909434]}}, {"type": "Feature", "properties": {"norad_id": 35784, "name": "COSMOS 2251 DEB", "group": "cosmos-2251-debris", "lat": -64.59887227929744, "lon": 34.80969759620144, "alt_km": 731.7574324491152, "timestamp": "2025-12-22T05:49:03.897913+00:00", "meta": {"OBJECT_NAME": "COSMOS 2251 DEB", "OBJECT_ID": "1993-036ASE", "EPOCH": "2025-12-17T23:28:57.859680", "MEAN_MOTION": 14.50055355, "ECCENTRICITY": 0.00415956, "INCLINATION": 74.0403, "RA_OF_ASC_NODE": 79.8718, "ARG_OF_PERICENTER": 209.9484, "MEAN_ANOMALY": 149.9297, "EPHEMERIS_TYPE": 0, "CLASSIFICATION_TYPE": "U", "NORAD_CAT_ID": 35784, "ELEMENT_SET_NO": 999, "REV_AT_EPOCH": 65782, "BSTAR": 0.00024795111, "MEAN_MOTION_DOT": 9.44e-06, "MEAN_MOTION_DDOT": 0}, "tle": {"line1": "1 35784U 93036ASE 25351.97844745  .00000944  00000+0  24795-3 0  9998", "line2": "2 35784  74.0403  79.8718 0041595 209.9484 149.9297 14.50055355657829"}}, "geometry": {"type": "Point", "coordinates": [34.80969759620144, -64.59887227929744]}}, {"type": "Feature", "properties": {"norad_id": 35786, "name": "COSMOS 2251 DEB", "group": "cosmos-2251-debris", "lat": 40.064804001690284, "lon": 39.38028336803702, "alt_km": 677.6760922313906, "timestamp": "2025-12-22T05:49:03.897923+00:00", "meta": {"OBJECT_NAME": "COSMOS 2251 DEB", "OBJECT_ID": "1993-036ASG", "EPOCH": "2025-12-21T19:48:04.442688", "MEAN_MOTION": 14.66307498, "ECCENTRICITY": 0.003332, "INCLINATION": 74.0136, "RA_OF_ASC_NODE": 26.2337, "ARG_OF_PERICENTER": 153.7976, "MEAN_ANOMALY": 206.4888, "EPHEMERIS_TYPE": 0, "CLASSIFICATION_TYPE": "U", "NORAD_CAT_ID": 35786, "ELEMENT_SET_NO": 999, "REV_AT_EPOCH": 73541, "BSTAR": 0.00067287, "MEAN_MOTION_DOT": 3.713e-05, "MEAN_MOTION_DDOT": 0}, "tle": {"line1": "1 35786U 93036ASG 25355.82505142  .00003713  00000+0  67287-3 0  9993", "line2": "2 35786  74.0136  26.2337 0033320 153.7976 206.4888 14.66307498735418"}}, "geometry": {"type": "Point", "coordinates": [39.38028336803702, 40.064804001690284]}}, {"type": "Feature", "properties": {"norad_id": 35789, "name": "COSMOS 2251 DEB", "group": "cosmos-2251-debris", "lat": 37.43420896846623, "lon": 74.27295152841145, "alt_km": 793.4272674132553, "timestamp": "2025-12-22T05:49:03.897933+00:00", "meta": {"OBJECT_NAME": "COSMOS 2251 DEB", "OBJECT_ID": "1993-036ASK", "EPOCH": "2025-12-20T11:22:01.638048", "MEAN_MOTION": 14.35991601, "ECCENTRICITY": 0.00476765, "INCLINATION": 74.0388, "RA_OF_ASC_NODE": 270.1736, "ARG_OF_PERICENTER": 7.6909, "MEAN_ANOMALY": 352.4963, "EPHEMERIS_TYPE": 0, "CLASSIFICATION_TYPE": "U", "NORAD_CAT_ID": 35789, "ELEMENT_SET_NO": 999, "REV_AT_EPOCH": 61338, "BSTAR": 9.629757e-05, "MEAN_MOTION_DOT": 2.57e-06, "MEAN_MOTION_DDOT": 0}, "tle": {"line1": "1 35789U 93036ASK 25354.47363007  .00000257  00000+0  96298-4 0  9993", "line2": "2 35789  74.0388 270.1736 0047676   7.6909 352.4963 14.35991601613383"}}, "geometry": {"type": "Point", "coordinates": [74.27295152841145, 37.43420896846623]}}, {"type": "Feature", "properties": {"norad_id": 35793, "name": "COSMOS 2251 DEB", "group": "cosmos-2251-debris", "lat": -34.326670117932736, "lon": -127.22408521728607, "alt_km": 639.8175066158183, "timestamp": "2025-12-22T05:49:03.897944+00:00", "meta": {"OBJECT_NAME": "COSMOS 2251 DEB", "OBJECT_ID": "1993-036ASP", "EPOCH": "2025-12-21T12:55:34.256352", "MEAN_MOTION": 14.7886459, "ECCENTRICITY": 0.00021549, "INCLINATION": 74.0406, "RA_OF_ASC_NODE": 42.8902, "ARG_OF_PERICENTER": 82.845, "MEAN_ANOMALY": 347.45, "EPHEMERIS_TYPE": 0, "CLASSIFICATION_TYPE": "U", "NORAD_CAT_ID": 35793, "ELEMENT_SET_NO": 999, "REV_AT_EPOCH": 65927, "BSTAR": 0.001180574, "MEAN_MOTION_DOT": 8.673e-05, "MEAN_MOTION_DDOT": 0}, "tle": {"line1": "1 35793U 93036ASP 25355.53859093  .00008673  00000+0  11806-2 0  9991", "line2": "2 35793  74.0406  42.8902 0002154  82.8450 347.4500 14.78864590659278"}}, "geometry": {"type": "Point", "coordinates": [-127.22408521728607, -34.326670117932736]}}, {"type": "Feature", "properties": {"norad_id": 35824, "name": "COSMOS 2251 DEB", "group": "cosmos-2251-debris", "lat": 24.124498785105892, "lon": 39.91498868635659, "alt_km": 933.4818912964693, "timestamp": "2025-12-22T05:49:03.897953+00:00", "meta": {"OBJECT_NAME": "COSMOS 2251 DEB", "OBJECT_ID": "1993-036ASW", "EPOCH": "2025-12-21T08:56:41.476128", "MEAN_MOTION": 13.88446909, "ECCENTRICITY": 0.02476754, "INCLINATION": 73.8455, "RA_OF_ASC_NODE": 33.9512, "ARG_OF_PERICENTER": 118.4856, "MEAN_ANOMALY": 244.1458, "EPHEMERIS_TYPE": 0, "CLASSIFICATION_TYPE": "U", "NORAD_CAT_ID": 35824, "ELEMENT_SET_NO": 999, "REV_AT_EPOCH": 84347, "BSTAR": 0.00083575798, "MEAN_MOTION_DOT": 1.258e-05, "MEAN_MOTION_DDOT": 0}, "tle": {"line1": "1 35824U 93036ASW 25355.37270227  .00001258  00000+0  83576-3 0  9990", "line2": "2 35824  73.8455  33.9512 0247675 118.4856 244.1458 13.88446909843479"}}, "geometry": {"type": "Point", "coordinates": [39.91498868635659, 24.124498785105892]}}, {"type": "Feature", "properties": {"norad_id": 35825, "name": "COSMOS 2251 DEB", "group": "cosmos-2251-debris", "lat": 16.619090640627455, "lon": -57.85352300949188, "alt_km": 851.9401372861121, "timestamp": "2025-12-22T05:49:03.897964+00:00", "meta": {"OBJECT_NAME": "COSMOS 2251 DEB", "OBJECT_ID": "1993-036ASX", "EPOCH": "2025-12-14T02:36:29.406816", "MEAN_MOTION": 13.70963524, "ECCENTRICITY": 0.03526119, "INCLINATION": 74.113, "RA_OF_ASC_NODE": 140.3902, "ARG_OF_PERICENTER": 235.9093, "MEAN_ANOMALY": 120.8102, "EPHEMERIS_TYPE": 0, "CLASSIFICATION_TYPE": "U", "NORAD_CAT_ID": 35825, "ELEMENT_SET_NO": 999, "REV_AT_EPOCH": 82527, "BSTAR": 0.0023333684, "MEAN_MOTION_DOT": 3.214e-05, "MEAN_MOTION_DDOT": 0}, "tle": {"line1": "1 35825U 93036ASX 25348.10867369  .00003214  00000+0  23334-2 0  9992", "line2": "2 35825  74.1130 140.3902 0352611 235.9093 120.8102 13.70963524825277"}}, "geometry": {"type": "Point", "coordinates": [-57.85352300949188, 16.619090640627455]}}, {"type": "Feature", "properties": {"norad_id": 35829, "name": "COSMOS 2251 DEB", "group": "cosmos-2251-debris", "lat": 49.88186204486968, "lon": 100.0621286790204, "alt_km": 634.9117741895925, "timestamp": "2025-12-22T05:49:03.897974+00:00", "meta": {"OBJECT_NAME": "COSMOS 2251 DEB", "OBJECT_ID": "1993-036ATB", "EPOCH": "2025-12-17T00:21:46.598688", "MEAN_MOTION": 14.76400839, "ECCENTRICITY": 0.0005573, "INCLINATION": 74.0249, "RA_OF_ASC_NODE": 90.4281, "ARG_OF_PERICENTER": 146.0686, "MEAN_ANOMALY": 214.0846, "EPHEMERIS_TYPE": 0, "CLASSIFICATION_TYPE": "U", "NORAD_CAT_ID": 35829, "ELEMENT_SET_NO": 999, "REV_AT_EPOCH": 87838, "BSTAR": 0.001494418, "MEAN_MOTION_DOT": 0.00010373, "MEAN_MOTION_DDOT": 0}, "tle": {"line1": "1 35829U 93036ATB 25351.01512267  .00010373  00000+0  14944-2 0  9995", "line2": "2 35829  74.0249  90.4281 0005573 146.0686 214.0846 14.76400839878381"}}, "geometry": {"type": "Point", "coordinates": [100.0621286790204, 49.88186204486968]}}, {"type": "Feature", "properties": {"norad_id": 35830, "name": "COSMOS 2251 DEB", "group": "cosmos-2251-debris", "lat": 5.389128656153179, "lon": -109.29040720063153, "alt_km": 889.3053325231167, "timestamp": "2025-12-22T05:49:03.897984+00:00", "meta": {"OBJECT_NAME": "COSMOS 2251 DEB", "OBJECT_ID": "1993-036ATC", "EPOCH": "2025-12-17T01:01:27.071616", "MEAN_MOTION": 14.24015017, "ECCENTRICITY": 0.01218819, "INCLINATION": 73.8614, "RA_OF_ASC_NODE": 258.6041, "ARG_OF_PERICENTER": 226.0627, "MEAN_ANOMALY": 133.0413, "EPHEMERIS_TYPE": 0, "CLASSIFICATION_TYPE": "U", "NORAD_CAT_ID": 35830, "ELEMENT_SET_NO": 999, "REV_AT_EPOCH": 61325, "BSTAR": 0.00082142349, "MEAN_MOTION_DOT": 2.01e-05, "MEAN_MOTION_DDOT": 0}, "tle": {"line1": "1 35830U 93036ATC 25351.04267444  .00002010  00000+0  82142-3 0  9999", "line2": "2 35830  73.8614 258.6041 0121881 226.0627 133.0413 14.24015017613259"}}, "geometry": {"type": "Point", "coordinates": [-109.29040720063153, 5.389128656153179]}}]}